NORAD_CAT_ID,OBJECT_NAME,OBJECT_TYPE,EPOCH,MEAN_MOTION,ECCENTRICITY,INCLINATION,RA_OF_ASC_NODE,ARG_OF_PERICENTER,MEAN_ANOMALY,BSTAR,MEAN_MOTION_DOT,MEAN_MOTION_DDOT,TLE_LINE0,TLE_LINE1,TLE_LINE2,SEMIMAJOR_AXIS,PERIOD,APOGEE,PERIGEE,DECAYED
51884.0,STARLINK-3577,PAYLOAD,2024-06-20 14:47:24,15.08842704,0.0001552,53.2185,294.1612,102.1451,257.9715,0.00011573,1.554e-05,0.0,0 STARLINK-3577,1 51884U 22022AJ  24172.61625249  .00001554  00000-0  11573-3 0  9990,2 51884  53.2185 294.1612 0001552 102.1451 257.9715 15.08842704128662,6917.872,95.437,540.811,538.663,0.0
51884.0,STARLINK-3577,PAYLOAD,2024-06-21 13:02:48,15.08821456,0.0001233,53.2189,289.9983,93.0758,267.0375,-0.0002262,-3.884e-05,0.0,0 STARLINK-3577,1 51884U 22022AJ  24173.54362130 -.00003884  00000-0 -22620-3 0  9995,2 51884  53.2189 289.9983 0001233  93.0758 267.0375 15.08821456128804,6917.937,95.439,540.655,538.949,0.0
51884.0,STARLINK-3577,PAYLOAD,2024-06-21 14:38:11,15.08822215,0.0001394,53.2191,289.701,105.9673,254.1472,-0.00023852,-4.08e-05,0.0,0 STARLINK-3577,1 51884U 22022AJ  24173.60986102 -.00004080  00000-0 -23852-3 0  9990,2 51884  53.2191 289.7010 0001394 105.9673 254.1472 15.08822215128813,6917.935,95.439,540.764,538.835,0.0
51884.0,STARLINK-3577,PAYLOAD,2024-06-22 12:53:35,15.08839138,0.0001205,53.2183,285.5402,89.6022,270.5108,0.00017042,2.425e-05,0.0,0 STARLINK-3577,1 51884U 22022AJ  24174.53722202  .00002425  00000-0  17042-3 0  9995,2 51884  53.2183 285.5402 0001205  89.6022 270.5108 15.08839138128955,6917.883,95.438,540.582,538.914,0.0
51884.0,STARLINK-3577,PAYLOAD,2024-06-22 14:28:58,15.08843332,0.0001226,53.218,285.2424,94.7906,265.3226,0.00021502,3.136e-05,0.0,0 STARLINK-3577,1 51884U 22022AJ  24174.60346029  .00003136  00000-0  21502-3 0  9998,2 51884  53.2180 285.2424 0001226  94.7906 265.3226 15.08843332128969,6917.87,95.437,540.583,538.887,0.0
51884.0,STARLINK-3577,PAYLOAD,2024-06-22 17:39:45,15.08846302,0.0001113,53.217,284.6471,93.1794,266.9325,0.00039985,6.083e-05,0.0,0 STARLINK-3577,1 51884U 22022AJ  24174.73594119  .00006083  00000-0  39985-3 0  9995,2 51884  53.2170 284.6471 0001113  93.1794 266.9325 15.08846302128985,6917.861,95.437,540.496,538.956,0.0
51884.0,STARLINK-3577,PAYLOAD,2024-06-23 12:44:22,15.08850907,0.0001194,53.2177,281.0784,103.5813,256.5312,0.00047056,7.211e-05,0.0,0 STARLINK-3577,1 51884U 22022AJ  24175.53082081  .00007211  00000-0  47056-3 0  9996,2 51884  53.2177 281.0784 0001194 103.5813 256.5312 15.08850907129109,6917.847,95.437,540.538,538.886,0.0
51884.0,STARLINK-3577,PAYLOAD,2024-06-24 12:35:09,15.08853307,0.0001183,53.2172,276.6173,104.268,255.8444,0.00014704,2.054e-05,0.0,0 STARLINK-3577,1 51884U 22022AJ  24176.52441234  .00002054  00000-0  14704-3 0  9999,2 51884  53.2172 276.6173 0001183 104.2680 255.8444 15.08853307129255,6917.84,95.437,540.523,538.886,0.0
51884.0,STARLINK-3577,PAYLOAD,2024-06-24 14:10:32,15.08853929,0.0001158,53.2171,276.3199,101.3456,258.7666,0.00015224,2.137e-05,0.0,0 STARLINK-3577,1 51884U 22022AJ  24176.59065159  .00002137  00000-0  15224-3 0  9994,2 51884  53.2171 276.3199 0001158 101.3456 258.7666 15.08853929129269,6917.838,95.437,540.504,538.902,0.0
51884.0,STARLINK-3577,PAYLOAD,2024-06-25 12:25:56,15.08844662,0.0001161,53.2172,272.1543,86.2866,273.8259,2.1886e-05,6.1e-07,0.0,0 STARLINK-3577,1 51884U 22022AJ  24177.51801306  .00000061  00000-0  21886-4 0  9995,2 51884  53.2172 272.1543 0001161  86.2866 273.8259 15.08844662129403,6917.866,95.437,540.534,538.928,0.0
51884.0,STARLINK-3577,PAYLOAD,2024-06-25 14:01:19,15.08844168,0.0001151,53.217,271.8571,78.2683,281.8438,9.9169e-06,-1.3e-06,0.0,0 STARLINK-3577,1 51884U 22022AJ  24177.58425328 -.00000130  00000-0  99169-5 0  9996,2 51884  53.2170 271.8571 0001151  78.2683 281.8438 15.08844168129415,6917.868,95.437,540.529,538.936,0.0
51884.0,STARLINK-3577,PAYLOAD,2024-06-26 10:41:20,15.08841769,0.0001406,53.2173,267.9926,65.9842,294.1297,3.6141e-05,2.87e-06,0.0,0 STARLINK-3577,1 51884U 22022AJ  24178.44537509  .00000287  00000-0  36141-4 0  9999,2 51884  53.2173 267.9926 0001406  65.9842 294.1297 15.08841769129549,6917.875,95.437,540.713,538.767,0.0
51884.0,STARLINK-3577,PAYLOAD,2024-06-27 12:07:30,15.08839673,0.0001166,53.2163,263.2353,87.7662,272.3464,0.00010116,1.322e-05,0.0,0 STARLINK-3577,1 51884U 22022AJ  24179.50521557  .00001322  00000-0  10116-3 0  9997,2 51884  53.2163 263.2353 0001166  87.7662 272.3464 15.08839673129709,6917.881,95.438,540.553,538.94,0.0
51884.0,STARLINK-3577,PAYLOAD,2024-06-28 11:58:17,15.08844655,0.0001228,53.2157,258.7734,92.7838,267.3295,0.00015834,2.233e-05,0.0,0 STARLINK-3577,1 51884U 22022AJ  24180.49881425  .00002233  00000-0  15834-3 0  9994,2 51884  53.2157 258.7734 0001228  92.7838 267.3295 15.08844655129852,6917.866,95.437,540.581,538.882,0.0
51884.0,STARLINK-3577,PAYLOAD,2024-06-28 16:44:26,15.08853065,0.0001137,53.2167,257.8828,88.816,271.2963,0.00028078,4.185e-05,0.0,0 STARLINK-3577,1 51884U 22022AJ  24180.69752978  .00004185  00000-0  28078-3 0  9998,2 51884  53.2167 257.8828 0001137  88.8160 271.2963 15.08853065129884,6917.84,95.437,540.492,538.919,0.0
51884.0,STARLINK-3577,PAYLOAD,2024-06-29 11:49:04,15.08841,0.0001262,53.2164,254.3158,79.5966,280.5168,0.00013081,1.795e-05,0.0,0 STARLINK-3577,1 51884U 22022AJ  24181.49241584  .00001795  00000-0  13081-3 0  9995,2 51884  53.2164 254.3158 0001262  79.5966 280.5168 15.08841000130001,6917.877,95.437,540.615,538.869,0.0
51884.0,STARLINK-3577,PAYLOAD,2024-06-29 21:21:23,15.08849875,0.0001281,53.2167,252.5318,80.0134,280.1002,0.00022101,3.232e-05,0.0,0 STARLINK-3577,1 51884U 22022AJ  24181.88985051  .00003232  00000-0  22101-3 0  9993,2 51884  53.2167 252.5318 0001281  80.0134 280.1002 15.08849875130064,6917.85,95.437,540.601,538.829,0.0
51884.0,STARLINK-3577,PAYLOAD,2024-06-30 10:04:28,15.08828476,0.0001336,53.216,250.1533,78.5173,281.5969,-0.00020934,-3.617e-05,0.0,0 STARLINK-3577,1 51884U 22022AJ  24182.41978003 -.00003617  00000-0 -20934-3 0  9993,2 51884  53.2160 250.1533 0001336  78.5173 281.5969 15.08828476130146,6917.916,95.438,540.705,538.856,0.0
51884.0,STARLINK-3577,PAYLOAD,2024-07-01 05:09:06,15.0883611,0.0001395,53.2167,246.5879,89.3723,270.7429,0.00012441,1.692e-05,0.0,0 STARLINK-3577,1 51884U 22022AJ  24183.21466320  .00001692  00000-0  12441-3 0  9999,2 51884  53.2167 246.5879 0001395  89.3723 270.7429 15.08836110130269,6917.892,95.438,540.722,538.792,0.0
51884.0,STARLINK-3577,PAYLOAD,2024-07-01 11:30:39,15.08837415,0.0001344,53.2161,245.3961,86.9886,273.126,0.00026144,3.875e-05,0.0,0 STARLINK-3577,1 51884U 22022AJ  24183.47962482  .00003875  00000-0  26144-3 0  9997,2 51884  53.2161 245.3961 0001344  86.9886 273.1260 15.08837415130303,6917.888,95.438,540.683,538.824,0.0
51884.0,STARLINK-3577,PAYLOAD,2024-07-01 21:02:58,15.08841828,0.0001378,53.2159,243.6117,88.1773,271.9377,0.00041304,6.292e-05,0.0,0 STARLINK-3577,1 51884U 22022AJ  24183.87706578  .00006292  00000-0  41304-3 0  9994,2 51884  53.2159 243.6117 0001378  88.1773 271.9377 15.08841828130364,6917.875,95.437,540.693,538.787,0.0
51884.0,STARLINK-3577,PAYLOAD,2024-07-02 12:56:50,15.08838666,0.0001411,53.2157,240.6378,88.196,271.9194,0.00019462,2.811e-05,0.0,0 STARLINK-3577,1 51884U 22022AJ  24184.53946841  .00002811  00000-0  19462-3 0  9990,2 51884  53.2157 240.6378 0001411  88.1960 271.9194 15.08838666130468,6917.884,95.438,540.726,538.773,0.0
51884.0,STARLINK-3577,PAYLOAD,2024-07-03 20:44:32,15.08847868,0.0001384,53.2146,234.6902,86.8271,273.288,0.0002228,3.26e-05,0.0,0 STARLINK-3577,1 51884U 22022AJ  24185.86426420  .00003260  00000-0  22280-3 0  9994,2 51884  53.2146 234.6902 0001384  86.8271 273.2880 15.08847868130664,6917.856,95.437,540.679,538.764,0.0
51884.0,STARLINK-3577,PAYLOAD,2024-07-04 09:27:37,15.08839322,0.0001378,53.216,232.3105,95.9985,264.1164,4.7282e-05,4.65e-06,0.0,0 STARLINK-3577,1 51884U 22022AJ  24186.39418841  .00000465  00000-0  47282-4 0  9995,2 51884  53.2160 232.3105 0001378  95.9985 264.1164 15.08839322130745,6917.882,95.438,540.701,538.794,0.0
51884.0,STARLINK-3577,PAYLOAD,2024-07-04 20:35:19,15.08843433,0.000143,53.2166,230.2279,100.7401,259.3753,9.9508e-05,1.296e-05,0.0,0 STARLINK-3577,1 51884U 22022AJ  24186.85786611  .00001296  00000-0  99508-4 0  9990,2 51884  53.2166 230.2279 0001430 100.7401 259.3753 15.08843433130813,6917.87,95.437,540.724,538.746,0.0
51884.0,STARLINK-3577,PAYLOAD,2024-07-05 09:18:24,15.08845072,0.0001385,53.2157,227.8504,92.2258,267.8893,7.3312e-05,8.79e-06,0.0,0 STARLINK-3577,1 51884U 22022AJ  24187.38778424  .00000879  00000-0  73312-4 0  9993,2 51884  53.2157 227.8504 0001385  92.2258 267.8893 15.08845072130898,6917.865,95.437,540.688,538.772,0.0
51884.0,STARLINK-3577,PAYLOAD,2024-07-06 12:19:58,15.08834159,0.0001323,53.2167,222.7944,94.3038,265.8105,7.8447e-06,-1.63e-06,0.0,0 STARLINK-3577,1 51884U 22022AJ  24188.51387103 -.00000163  00000-0  78447-5 0  9991,2 51884  53.2167 222.7944 0001323  94.3038 265.8105 15.08834159131060,6917.898,95.438,540.678,538.848,0.0
51884.0,STARLINK-3577,PAYLOAD,2024-07-07 08:59:58,15.08839017,0.0001315,53.2166,218.9294,92.6498,267.4645,4.1201e-05,3.68e-06,0.0,0 STARLINK-3577,1 51884U 22022AJ  24189.37498806  .00000368  00000-0  41201-4 0  9992,2 51884  53.2166 218.9294 0001315  92.6498 267.4645 15.08839017131195,6917.883,95.438,540.658,538.839,0.0
51884.0,STARLINK-3577,PAYLOAD,2024-07-08 08:50:46,15.08833362,0.0001249,53.2161,214.4688,92.5675,267.546,7.5128e-05,9.08e-06,0.0,0 STARLINK-3577,1 51884U 22022AJ  24190.36859244  .00000908  00000-0  75128-4 0  9995,2 51884  53.2161 214.4688 0001249  92.5675 267.5460 15.08833362131340,6917.901,95.438,540.63,538.902,0.0
51884.0,STARLINK-3577,PAYLOAD,2024-07-08 18:23:05,15.08837348,0.0001258,53.2162,212.6846,91.77,268.3437,9.887e-05,1.286e-05,0.0,0 STARLINK-3577,1 51884U 22022AJ  24190.76603075  .00001286  00000-0  98870-4 0  9997,2 51884  53.2162 212.6846 0001258  91.7700 268.3437 15.08837348131405,6917.888,95.438,540.624,538.883,0.0
